NORAD_CAT_ID,OBJECT_NAME,OBJECT_TYPE,EPOCH,MEAN_MOTION,ECCENTRICITY,INCLINATION,RA_OF_ASC_NODE,ARG_OF_PERICENTER,MEAN_ANOMALY,BSTAR,MEAN_MOTION_DOT,MEAN_MOTION_DDOT,TLE_LINE0,TLE_LINE1,TLE_LINE2,SEMIMAJOR_AXIS,PERIOD,APOGEE,PERIGEE,DECAYED
51884.0,STARLINK-3577,PAYLOAD,2022-10-20 01:48:09,15.08840122,0.0001594,53.2166,150.496,60.9834,299.1318,2.259800000000001e-05,7.2e-07,0.0,0 STARLINK-3577,1 51884U 22022AJ  22293.07510635  .00000072  00000-0  22598-4 0  9998,2 51884  53.2166 150.4960 0001594  60.9834 299.1318 15.08840122 36648,6917.88,95.438,540.8480000000002,538.6419999999998,0.0
51884.0,STARLINK-3577,PAYLOAD,2022-10-20 20:52:46,15.08836758,0.0001588999999999,53.2165,146.9275,61.0703,299.0448,0.00011927,1.611e-05,0.0,0 STARLINK-3577,1 51884U 22022AJ  22293.86998570  .00001611  00000-0  11927-3 0  9996,2 51884  53.2165 146.9275 0001589  61.0703 299.0448 15.08836758 36763,6917.89,95.438,540.855,538.656,0.0
51884.0,STARLINK-3577,PAYLOAD,2022-10-21 00:03:33,15.08832856,0.0001524,53.2168,146.332,59.7975,300.3168,9.082e-05,1.157e-05,0.0,0 STARLINK-3577,1 51884U 22022AJ  22294.00246935  .00001157  00000-0  90820-4 0  9999,2 51884  53.2168 146.3320 0001524  59.7975 300.3168 15.08832856 36787,6917.901999999999,95.438,540.822,538.7130000000002,0.0
51884.0,STARLINK-3577,PAYLOAD,2022-10-21 20:43:34,15.08824581,0.0001189999999999,53.2165,142.467,57.0642,303.0465,0.00029949,4.48e-05,0.0,0 STARLINK-3577,1 51884U 22022AJ  22294.86359016  .00004480  00000-0  29949-3 0  9993,2 51884  53.2165 142.4670 0001190  57.0642 303.0465 15.08824581 36911,6917.928000000001,95.439,540.616,538.969,0.0
51884.0,STARLINK-3577,PAYLOAD,2022-10-21 23:54:19,15.08846492,0.0001575999999999,53.2165,141.8723,57.9244,302.1901,6.711e-05,7.8e-06,0.0,0 STARLINK-3577,1 51884U 22022AJ  22294.99606243  .00000780  00000-0  67110-4 0  9996,2 51884  53.2165 141.8723 0001576  57.9244 302.1901 15.08846492 36930,6917.861,95.437,540.816,538.635,0.0
51884.0,STARLINK-3577,PAYLOAD,2022-10-22 20:34:20,15.08836767,0.0001609,53.2163,138.0067,57.978,302.1368,2.5559e-05,1.19e-06,0.0,0 STARLINK-3577,1 51884U 22022AJ  22295.85718743  .00000119  00000-0  25559-4 0  9998,2 51884  53.2163 138.0067 0001609  57.9780 302.1368 15.08836767 37065,6917.89,95.438,540.868,538.6419999999998,0.0
51884.0,STARLINK-3577,PAYLOAD,2022-10-23 01:20:30,15.08839118,0.0001616,53.2164,137.1145,57.6397,302.4751,4.1341e-05,3.700000000000001e-06,0.0,0 STARLINK-3577,1 51884U 22022AJ  22296.05590555  .00000370  00000-0  41341-4 0  9996,2 51884  53.2164 137.1145 0001616  57.6397 302.4751 15.08839118 37097,6917.8830000000025,95.438,540.866,538.63,0.0
51884.0,STARLINK-3577,PAYLOAD,2022-10-23 20:25:06,15.08852357,0.0001617,53.2165,133.5459,56.8913,303.2234,5.506100000000003e-05,5.89e-06,0.0,0 STARLINK-3577,1 51884U 22022AJ  22296.85077396  .00000589  00000-0  55061-4 0  9993,2 51884  53.2165 133.5459 0001617  56.8913 303.2234 15.08852357 37211,6917.843000000003,95.437,540.826,538.589,0.0
51884.0,STARLINK-3577,PAYLOAD,2022-10-24 12:18:59,15.08834512,0.000177,53.2167,130.5724,62.6205,297.4967,5.1291e-06,-2.06e-06,0.0,0 STARLINK-3577,1 51884U 22022AJ  22297.51318529 -.00000206  00000-0  51291-5 0  9992,2 51884  53.2167 130.5724 0001770  62.6205 297.4967 15.08834512 37315,6917.897,95.438,540.987,538.538,0.0
51884.0,STARLINK-3577,PAYLOAD,2022-10-24 17:05:09,15.08824952,0.000162,53.2165,129.6803,58.5239,301.5911,-7.352e-05,-1.457e-05,0.0,0 STARLINK-3577,1 51884U 22022AJ  22297.71191465 -.00001457  00000-0 -73520-4 0  9990,2 51884  53.2165 129.6803 0001620  58.5239 301.5911 15.08824952 37341,6917.926,95.439,540.9119999999998,538.6709999999998,0.0
51884.0,STARLINK-3577,PAYLOAD,2022-10-24 18:40:32,15.08824677,0.0001624,53.2165,129.3829,58.5284,301.5867,-7.5575e-05,-1.49e-05,0.0,0 STARLINK-3577,1 51884U 22022AJ  22297.77815538 -.00001490  00000-0 -75575-4 0  9999,2 51884  53.2165 129.3829 0001624  58.5284 301.5867 15.08824677 37355,6917.927,95.439,540.9159999999998,538.669,0.0
51884.0,STARLINK-3577,PAYLOAD,2022-10-25 05:48:14,15.08828382,0.0001639,53.2165,127.3013,57.7631,302.3520000000001,-6.9689e-05,-1.397e-05,0.0,0 STARLINK-3577,1 51884U 22022AJ  22298.24183590 -.00001397  00000-0 -69689-4 0  9993,2 51884  53.2165 127.3013 0001639  57.7631 302.3520 15.08828382 37421,6917.916,95.438,540.915,538.6469999999998,0.0
51884.0,STARLINK-3577,PAYLOAD,2022-10-25 18:31:19,15.08833705,0.0001671,53.2164,124.9222,58.7289,301.3867,-9.3353e-05,-1.773e-05,0.0,0 STARLINK-3577,1 51884U 22022AJ  22298.77175618 -.00001773  00000-0 -93353-4 0  9996,2 51884  53.2164 124.9222 0001671  58.7289 301.3867 15.08833705 37508,6917.9,95.438,540.9209999999998,538.609,0.0
51884.0,STARLINK-3577,PAYLOAD,2022-10-25 20:06:42,15.0883375,0.0001675999999999,53.2165,124.6249,58.8268,301.2888,-9.0827e-05,-1.733e-05,0.0,0 STARLINK-3577,1 51884U 22022AJ  22298.83799635 -.00001733  00000-0 -90827-4 0  9993,2 51884  53.2165 124.6249 0001676  58.8268 301.2888 15.08833750 37511,6917.899,95.438,540.924,538.605,0.0
51884.0,STARLINK-3577,PAYLOAD,2022-10-26 05:39:01,15.08832918,0.0001619,53.2165,122.8414,57.9428,302.1722,-2.1089e-05,-6.24e-06,0.0,0 STARLINK-3577,1 51884U 22022AJ  22299.23543635 -.00000624  00000-0 -21089-4 0  9997,2 51884  53.2165 122.8414 0001619  57.9428 302.1722 15.08832918 37578,6917.901999999999,95.438,540.887,538.6469999999998,0.0
51884.0,STARLINK-3577,PAYLOAD,2022-10-26 18:22:06,15.08827974,0.0001696,53.2168,120.4618,59.393,300.7229,0.00011073,1.474e-05,0.0,0 STARLINK-3577,1 51884U 22022AJ  22299.76535870  .00001474  00000-0  11073-3 0  9990,2 51884  53.2168 120.4618 0001696  59.3930 300.7229 15.08827974 37651,6917.917,95.438,540.955,538.609,0.0
51884.0,STARLINK-3577,PAYLOAD,2022-10-26 21:32:53,15.08829556,0.0001703,53.2168,119.867,59.5032,300.6128,0.00011929,1.6100000000000002e-05,0.0,0 STARLINK-3577,1 51884U 22022AJ  22299.89783842  .00001610  00000-0  11929-3 0  9990,2 51884  53.2168 119.8670 0001703  59.5032 300.6128 15.08829556 37672,6917.9119999999975,95.438,540.955,538.599,0.0
51884.0,STARLINK-3577,PAYLOAD,2022-10-27 18:12:53,15.08842078,0.0001686999999999,53.2169,116.0009,61.597,298.5192,0.00012106,1.639e-05,0.0,0 STARLINK-3577,1 51884U 22022AJ  22300.75895354  .00001639  00000-0  12106-3 0  9999,2 51884  53.2169 116.0009 0001687  61.5970 298.5192 15.08842078 37808,6917.874,95.437,540.906,538.572,0.0
51884.0,STARLINK-3577,PAYLOAD,2022-10-27 21:23:39,15.08843436,0.0001730999999999,53.2172,115.4069,60.2177,299.8987,0.00012973,1.777e-05,0.0,0 STARLINK-3577,1 51884U 22022AJ  22300.89143243  .00001777  00000-0  12973-3 0  9992,2 51884  53.2172 115.4069 0001731  60.2177 299.8987 15.08843436 37823,6917.87,95.437,540.932,538.5369999999998,0.0
51884.0,STARLINK-3577,PAYLOAD,2022-10-28 18:03:40,15.08844032,0.0001753,53.2171,111.5415,58.4758,301.6405,7.7523e-05,9.46e-06,0.0,0 STARLINK-3577,1 51884U 22022AJ  22301.75255018  .00000946  00000-0  77523-4 0  9992,2 51884  53.2171 111.5415 0001753  58.4758 301.6405 15.08844032 37956,6917.868,95.437,540.946,538.52,0.0
51884.0,STARLINK-3577,PAYLOAD,2022-10-28 21:14:26,15.08844509,0.0001744,53.2172,110.9467,56.869,303.2469,4.5634e-05,4.38e-06,0.0,0 STARLINK-3577,1 51884U 22022AJ  22301.88503050  .00000438  00000-0  45634-4 0  9992,2 51884  53.2172 110.9467 0001744  56.8690 303.2469 15.08844509 37973,6917.8669999999975,95.437,540.938,538.525,0.0
51884.0,STARLINK-3577,PAYLOAD,2022-10-29 17:54:27,15.08843741,0.0001682,53.2168,107.0801,56.3505,303.7648,-3.696300000000001e-05,-8.76e-06,0.0,0 STARLINK-3577,1 51884U 22022AJ  22302.74614940 -.00000876  00000-0 -36963-4 0  9992,2 51884  53.2168 107.0801 0001682  56.3505 303.7648 15.08843741 38105,6917.869000000002,95.437,540.898,538.57,0.0
51884.0,STARLINK-3577,PAYLOAD,2022-10-29 21:05:13,15.08843876,0.0001686999999999,53.2168,106.4855,56.2133,303.9019,-3.161e-05,-7.91e-06,0.0,0 STARLINK-3577,1 51884U 22022AJ  22302.87862904 -.00000791  00000-0 -31610-4 0  9991,2 51884  53.2168 106.4855 0001687  56.2133 303.9019 15.08843876 38123,6917.869000000002,95.437,540.901,538.566,0.0
51884.0,STARLINK-3577,PAYLOAD,2022-10-30 12:59:04,15.0883926,0.0001668,53.217,103.5117,56.7225,303.3927,4.316e-07,-2.81e-06,0.0,0 STARLINK-3577,1 51884U 22022AJ  22303.54102801 -.00000281  00000-0  43160-6 0  9997,2 51884  53.2170 103.5117 0001668  56.7225 303.3927 15.08839260 38226,6917.8830000000025,95.438,540.9019999999998,538.594,0.0
51884.0,STARLINK-3577,PAYLOAD,2022-10-30 20:56:00,15.08837603,0.0001665,53.217,102.0248,55.262,304.8528,-1.5552e-05,-5.36e-06,0.0,0 STARLINK-3577,1 51884U 22022AJ  22303.87222974 -.00000536  00000-0 -15552-4 0  9993,2 51884  53.2170 102.0248 0001665  55.2620 304.8528 15.08837603 38272,6917.888000000001,95.438,540.905,538.601,0.0
51884.0,STARLINK-3577,PAYLOAD,2022-10-31 19:11:24,15.08839558,0.0001509,53.2169,97.8614,45.3863,314.7252,-3.468e-05,-8.400000000000001e-06,0.0,0 STARLINK-3577,1 51884U 22022AJ  22304.79958818 -.00000840  00000-0 -34680-4 0  9999,2 51884  53.2169  97.8614 0001509  45.3863 314.7252 15.08839558 38415,6917.882,95.438,540.7909999999998,538.703,0.0
51884.0,STARLINK-3577,PAYLOAD,2022-10-31 20:46:47,15.08836546,0.0001574,53.2168,97.5638,51.8049,308.3085,8.844400000000001e-06,-1.47e-06,0.0,0 STARLINK-3577,1 51884U 22022AJ  22304.86582897 -.00000147  00000-0  88444-5 0  9994,2 51884  53.2168  97.5638 0001574  51.8049 308.3085 15.08836546 38425,6917.891,95.438,540.845,538.6669999999998,0.0
51884.0,STARLINK-3577,PAYLOAD,2022-11-01 12:40:39,15.08834663,0.0001348,53.2172,94.5897,53.5711,306.5405,-5.4044e-07,-2.96e-06,0.0,0 STARLINK-3577,1 51884U 22022AJ  22305.52823161 -.00000296  00000-0 -54044-6 0  9996,2 51884  53.2172  94.5897 0001348  53.5711 306.5405 15.08834663 38523,6917.897,95.438,540.694,538.8290000000002,0.0
51884.0,STARLINK-3577,PAYLOAD,2022-11-01 19:02:11,15.08837877,0.000147,53.2168,93.4002,53.0413,307.0714,2.745300000000001e-05,1.49e-06,0.0,0 STARLINK-3577,1 51884U 22022AJ  22305.79318942  .00000149  00000-0  27453-4 0  9998,2 51884  53.2168  93.4002 0001470  53.0413 307.0714 15.08837877 38567,6917.887,95.438,540.769,538.735,0.0
